NORAD_CAT_ID,OBJECT_NAME,OBJECT_TYPE,EPOCH,MEAN_MOTION,ECCENTRICITY,INCLINATION,RA_OF_ASC_NODE,ARG_OF_PERICENTER,MEAN_ANOMALY,BSTAR,MEAN_MOTION_DOT,MEAN_MOTION_DDOT,TLE_LINE0,TLE_LINE1,TLE_LINE2,SEMIMAJOR_AXIS,PERIOD,APOGEE,PERIGEE,DECAYED
51865.0,STARLINK-3503,PAYLOAD,2022-07-01 14:00:01,15.08858934,0.0001652,53.2169,296.5235,49.6943,357.3231,-0.0011044,-0.00017831,0.0,0 STARLINK-3503,1 51865U 22022P   22182.58334491 -.00017831  00000-0 -11044-2 0  9999,2 51865  53.2169 296.5235 0001652  49.6943 357.3231 15.08858934 19740,6917.823,95.436,540.83,538.545,0.0
51865.0,STARLINK-3503,PAYLOAD,2022-07-01 22:00:00,15.0888025,0.0001616,53.2168,295.0268,45.4845,13.1367,-0.0034812,-0.00055327,0.0,0 STARLINK-3503,1 51865U 22022P   22182.91667824 -.00055327  00000-0 -34812-2 0  9995,2 51865  53.2168 295.0268 0001616  45.4845  13.1367 15.08880250  1300,6917.757,95.435,540.74,538.504,0.0
51865.0,STARLINK-3503,PAYLOAD,2022-07-02 14:00:01,15.08842216,0.0001636999999999,53.2169,292.0346,46.03,35.8062,-0.00077755,-0.00012642,0.0,0 STARLINK-3503,1 51865U 22022P   22183.58334491 -.00012642  00000-0 -77755-3 0  9997,2 51865  53.2169 292.0346 0001637  46.0300  35.8062 15.08842216  1304,6917.874,95.437,540.871,538.606,0.0
51865.0,STARLINK-3503,PAYLOAD,2022-07-02 22:00:00,15.08866796,0.000162,53.2168,290.5377,43.1878,50.2486,-0.0011952999999999,-0.00019275,0.0,0 STARLINK-3503,1 51865U 22022P   22183.91667824 -.00019275  00000-0 -11953-2 0  9999,2 51865  53.2168 290.5377 0001620  43.1878  50.2486 15.08866796 19949,6917.7980000000025,95.436,540.784,538.543,0.0
51865.0,STARLINK-3503,PAYLOAD,2022-07-03 14:00:01,15.08867938,0.0001662,53.217,287.5455,43.7301,72.9462,-0.0032232,-0.0005126,0.0,0 STARLINK-3503,1 51865U 22022P   22184.58334491 -.00051260  00000-0 -32232-2 0  9997,2 51865  53.2170 287.5455 0001662  43.7301  72.9462 15.08867938  1303,6917.795,95.436,540.81,538.51,0.0
51865.0,STARLINK-3503,PAYLOAD,2022-07-03 22:00:00,15.08848998,0.0001629,53.2169,286.0485,42.9259,85.3534,-0.0035976,-0.00057104,0.0,0 STARLINK-3503,1 51865U 22022P   22184.91667824 -.00057104  00000-0 -35976-2 0  9994,2 51865  53.2169 286.0485 0001629  42.9259  85.3534 15.08848998  1307,6917.853,95.437,540.845,538.591,0.0
51865.0,STARLINK-3503,PAYLOAD,2022-07-04 14:00:01,15.08819899,0.0001726,53.2171,283.0566,44.7966,106.6326,-7.0646e-05,-1.412e-05,0.0,0 STARLINK-3503,1 51865U 22022P   22185.58334491 -.00001412  00000-0 -70646-4 0  9995,2 51865  53.2171 283.0566 0001726  44.7966 106.6326 15.08819899  1304,6917.941999999999,95.439,541.001,538.613,0.0
51865.0,STARLINK-3503,PAYLOAD,2022-07-04 22:00:00,15.08848511,0.0001656,53.2169,281.5594,44.3025,118.7023,-0.001687,-0.00027043,0.0,0 STARLINK-3503,1 51865U 22022P   22185.91667824 -.00027043  00000-0 -16870-2 0  9996,2 51865  53.2169 281.5594 0001656  44.3025 118.7023 15.08848511 20244,6917.854,95.437,540.865,538.5740000000002,0.0
51865.0,STARLINK-3503,PAYLOAD,2022-07-05 14:00:01,15.08844154,0.0001742,53.217,278.5675,44.8042,141.3924,-0.00013808,-2.485e-05,0.0,0 STARLINK-3503,1 51865U 22022P   22186.58334491 -.00002485  00000-0 -13808-3 0  9993,2 51865  53.2170 278.5675 0001742  44.8042 141.3924 15.08844154  1309,6917.868,95.437,540.938,538.528,0.0
51865.0,STARLINK-3503,PAYLOAD,2022-07-05 22:00:00,15.08855273,0.000167,53.2167,277.07,46.6466,151.1447,-0.0033573,-0.00053347,0.0,0 STARLINK-3503,1 51865U 22022P   22186.91667824 -.00053347  00000-0 -33573-2 0  9992,2 51865  53.2167 277.0700 0001670  46.6466 151.1447 15.08855273  1301,6917.834,95.437,540.854,538.543,0.0
51865.0,STARLINK-3503,PAYLOAD,2022-07-06 14:00:01,15.08823436,0.0001781,53.2167,274.0784,46.9423,174.0242,0.00078386,0.00012204,0.0,0 STARLINK-3503,1 51865U 22022P   22187.58334491  .00012204  00000-0  78386-3 0  9994,2 51865  53.2167 274.0784 0001781  46.9423 174.0242 15.08823436  1302,6917.931,95.439,541.028,538.564,0.0
51865.0,STARLINK-3503,PAYLOAD,2022-07-06 22:33:49,15.08830843,0.0001679,53.2178,272.4752,47.8898,312.2236,5.2725e-05,5.51e-06,0.0,0 STARLINK-3503,1 51865U 22022P   22187.94015251  .00000551  00000-0  52725-4 0  9996,2 51865  53.2178 272.4752 0001679  47.8898 312.2236 15.08830843 20550,6917.908,95.438,540.935,538.612,0.0
51865.0,STARLINK-3503,PAYLOAD,2022-07-07 12:52:17,15.08839269,0.0001703,53.2176,269.7989,48.4933,311.6205,4.5554e-05,4.37e-06,0.0,0 STARLINK-3503,1 51865U 22022P   22188.53630977  .00000437  00000-0  45554-4 0  9995,2 51865  53.2176 269.7989 0001703  48.4933 311.6205 15.08839269 20644,6917.8830000000025,95.438,540.9259999999998,538.57,0.0
51865.0,STARLINK-3503,PAYLOAD,2022-07-07 22:00:00,15.08859665,0.0001674,53.2162,268.0916,49.0615,218.2727,-0.0018362,-0.00029408,0.0,0 STARLINK-3503,1 51865U 22022P   22188.91667824 -.00029408  00000-0 -18362-2 0  9994,2 51865  53.2162 268.0916 0001674  49.0615 218.2727 15.08859665  1307,6917.82,95.436,540.8430000000002,538.5269999999998,0.0
51865.0,STARLINK-3503,PAYLOAD,2022-07-08 12:43:02,15.08855034,0.000177,53.2176,265.3385,50.2686,309.8462,0.00021989,3.215e-05,0.0,0 STARLINK-3503,1 51865U 22022P   22189.52989162  .00003215  00000-0  21989-3 0  9990,2 51865  53.2176 265.3385 0001770  50.2686 309.8462 15.08855034 20794,6917.834,95.437,540.924,538.475,0.0
51865.0,STARLINK-3503,PAYLOAD,2022-07-08 22:00:01,15.08880916,0.0001781,53.2161,263.60200000000003,50.5433,251.7173,-0.0023019,-0.00036778,0.0,0 STARLINK-3503,1 51865U 22022P   22189.91668981 -.00036778  00000-0 -23019-2 0  9993,2 51865  53.2161 263.6020 0001781  50.5433 251.7173 15.08880916  1307,6917.755,95.435,540.852,538.388,0.0
51865.0,STARLINK-3503,PAYLOAD,2022-07-09 06:00:00,15.08899916,0.0001626999999999,53.2166,262.0986,52.0506,261.6978,-0.010837,-0.00169018,0.0,0 STARLINK-3503,1 51865U 22022P   22190.25001157 -.00169018  00000-0 -10837-1 0  9995,2 51865  53.2166 262.0986 0001627  52.0506 261.6978 15.08899916 20891,6917.696999999999,95.434,540.688,538.437,0.0
51865.0,STARLINK-3503,PAYLOAD,2022-07-09 14:00:01,15.08823506,0.0001857,53.2163,260.6108,46.084,279.2693,0.0015444,0.00024366,0.0,0 STARLINK-3503,1 51865U 22022P   22190.58334491  .00024366  00000-0  15444-2 0  9995,2 51865  53.2163 260.6108 0001857  46.0840 279.2693 15.08823506  1303,6917.931,95.439,541.08,538.511,0.0
51865.0,STARLINK-3503,PAYLOAD,2022-07-09 20:00:01,15.08861408,0.0001738,53.2162,259.4874,44.8055,199.2301,-0.0047078,-0.00074483,0.0,0 STARLINK-3503,1 51865U 22022P   22190.83334491 -.00074483  00000-0 -47078-2 0  9998,2 51865  53.2162 259.4874 0001738  44.8055 199.2301 15.08861408  1300,6917.815,95.436,540.882,538.4780000000002,0.0
51865.0,STARLINK-3503,PAYLOAD,2022-07-10 06:00:00,15.08828965,0.000167,53.2165,257.6118,49.6207,298.899,-0.00021312,-3.677e-05,0.0,0 STARLINK-3503,1 51865U 22022P   22191.25001157 -.00003677  00000-0 -21312-3 0  9996,2 51865  53.2165 257.6118 0001670  49.6207 298.8990 15.08828965 21045,6917.9140000000025,95.438,540.934,538.624,0.0
51865.0,STARLINK-3503,PAYLOAD,2022-07-10 14:00:01,15.08804394,0.0001869,53.2166,256.1218,43.5389,316.5617,0.0024993,0.00039674,0.0,0 STARLINK-3503,1 51865U 22022P   22191.58334491  .00039674  00000-0  24993-2 0  9993,2 51865  53.2166 256.1218 0001869  43.5389 316.5617 15.08804394  1317,6917.989000000001,95.44,541.1469999999998,538.561,0.0
51865.0,STARLINK-3503,PAYLOAD,2022-07-10 22:00:00,15.0883228,0.0001738,53.2166,254.6239,45.7033,325.9707,-0.00041125,-6.826e-05,0.0,0 STARLINK-3503,1 51865U 22022P   22191.91667824 -.00006826  00000-0 -41125-3 0  9991,2 51865  53.2166 254.6239 0001738  45.7033 325.9707 15.08832280  1306,6917.904,95.438,540.971,538.567,0.0
51865.0,STARLINK-3503,PAYLOAD,2022-07-11 14:00:01,15.08820842,0.0001925,53.2167,251.6329,43.1898,351.6684,0.0028066,0.00044639,0.0,0 STARLINK-3503,1 51865U 22022P   22192.58334491  .00044639  00000-0  28066-2 0  9996,2 51865  53.2167 251.6329 0001925  43.1898 351.6684 15.08820842  1304,6917.939,95.439,541.136,538.472,0.0
51865.0,STARLINK-3503,PAYLOAD,2022-07-11 22:00:00,15.088448800000002,0.0001764,53.2167,250.1349,46.0482,0.4045,0.00016118,2.278e-05,0.0,0 STARLINK-3503,1 51865U 22022P   22192.91667824  .00002278  00000-0  16118-3 0  9991,2 51865  53.2167 250.1349 0001764  46.0482   0.4045 15.08844880  1300,6917.865,95.437,540.951,538.51,0.0
51865.0,STARLINK-3503,PAYLOAD,2022-07-12 06:00:00,15.08877627,0.0001745,53.2168,248.6388,46.716,11.3332,-0.0038212,-0.00060654,0.0,0 STARLINK-3503,1 51865U 22022P   22193.25001157 -.00060654  00000-0 -38212-2 0  9992,2 51865  53.2168 248.6388 0001745  46.7160  11.3332 15.08877627 21357,6917.765,95.435,540.8380000000002,538.423,0.0
51865.0,STARLINK-3503,PAYLOAD,2022-07-12 14:00:01,15.08814658,0.000187,53.2165,247.1439,40.2106,29.4639,0.0031806,0.0005066,0.0,0 STARLINK-3503,1 51865U 22022P   22193.58334491  .00050660  00000-0  31806-2 0  9994,2 51865  53.2165 247.1439 0001870  40.2106  29.4639 15.08814658  1301,6917.958000000001,95.439,541.117,538.529,0.0
51865.0,STARLINK-3503,PAYLOAD,2022-07-12 22:00:00,15.08838662,0.0001675,53.2164,245.6459,43.7975,37.4707,0.00099145,0.00015526,0.0,0 STARLINK-3503,1 51865U 22022P   22193.91667824  .00015526  00000-0  99145-3 0  9993,2 51865  53.2164 245.6459 0001675  43.7975  37.4707 15.08838662  1306,6917.884,95.438,540.908,538.591,0.0
51865.0,STARLINK-3503,PAYLOAD,2022-07-13 14:00:01,15.08808023,0.0001805,53.2159,242.6549,37.6046,66.8716,0.0030275,0.00048182,0.0,0 STARLINK-3503,1 51865U 22022P   22194.58334491  .00048182  00000-0  30275-2 0  9990,2 51865  53.2159 242.6549 0001805  37.6046  66.8716 15.08808023 21556,6917.978,95.44,541.092,538.594,0.0
51865.0,STARLINK-3503,PAYLOAD,2022-07-13 22:00:00,15.08826356,0.0001641999999999,53.2157,241.1569,43.4281,72.6301,-0.0013905,-0.00022342,0.0,0 STARLINK-3503,1 51865U 22022P   22194.91667824 -.00022342  00000-0 -13905-2 0  9999,2 51865  53.2157 241.1569 0001642  43.4281  72.6301 15.08826356 21605,6917.922,95.438,540.923,538.651,0.0
